{"fetched_at":"2026-03-30T06:02:59Z","count":15439,"tles":[{"name":"STARLINK-11160 [DTC]","line1":"1 60125U 24118N   26087.39859896  .00015402  00000+0  13168-3 0  9993","line2":"2 60125  53.1579 128.8924 0001303  66.8636 293.2519 15.69721978100931","category":"Starlink"}]}